C/2020 H5 (Robinson),e,70.2493,210.6253,326.2864,4771,0.0000030,0.99804294,0.0000,12/10.0777/2020,2000,g  5.0,4.0
# From MPEC 2024-JU4
C/2020 H6 (ATLAS),e,79.9792,213.7145,20.2389,2816,0.0000066,0.99833141,0.0000,09/30.0615/2021,2000,g  8.0,3.2
# From MPEC 2020-KB7
C/2020 H7 (Lemmon),e,135.9235,323.5194,82.6780,1405,0.0000187,0.99685380,0.0000,06/02.9510/2020,2000,g 11.0,4.0
# From MPEC 2021-N06
C/2020 H8 (PANSTARRS),e,99.7060,68.4433,128.8846,598.7804,0.0000673,0.99220127,0.0000,06/04.6213/2020,2000,g 10.5,4.0
# From MPEC 2022-ED3
A/2020 H9,e,137.8777,213.1694,312.7294,357.7797,0.0001456,0.99282546,0.0000,12/21.9171/2019,2000,g 18.0,2.0
# From MPEC 2023-HN7
C/2020 H11 (PANSTARRS-Lemmon),h,09/13.8817/2020,151.3849,303.0509,91.4106,1.001109,7.622999,2000,8.5,4.0
# From MPEC 2023-KD6
C/2020 J1 (SONEAR),h,04/18.4531/2021,142.3059,226.6080,341.6636,1.000277,3.348622,2000,8.5,3.2
# From MPEC 2024-JU4
C/2020 K1 (PANSTARRS),e,89.6726,94.3641,213.9790,5585,0.0000024,0.99944973,0.0000,05/09.0181/2023,2000,g  5.5,4.0
# From MPEC 2021-N06
C/2020 K2 (PANSTARRS),h,08/05.6541/2020,91.0013,288.4201,67.3378,1.002346,8.880510,2000,10.8,4.0
# From MPEC 2020-KF9
C/2020 K3 (Leonard),p,06/01.0032/2020,129.0152,64.4924,1.583069,28.3546,2000,14.5,4.0
# From MPEC 2020-L06
C/2020 K4 (PANSTARRS),e,125.5853,264.2606,308.8463,23.96263,0.0084024,0.92699588,13.3975,07/16.0/2024,2000,g 16.5,4.0
# From MPEC 2021-R75
C/2020 K5 (PANSTARRS),h,06/04.9781/2021,67.0785,86.1470,249.6317,1.001087,1.538710,2000,11.0,4.0
# From MPEC 2023-N01
C/2020 K6 (Rankin),h,09/15.4861/2021,103.6403,291.5840,44.3187,1.003122,5.867851,2000,8.0,4.0
# From MPEC 2023-A50
C/2020 K7 (PANSTARRS),e,32.0444,286.1141,358.1774,96.26902,0.0010435,0.93358970,1.7993,07/16.0/2024,2000,g  8.0,4.0
# From MPEC 2021-P47
C/2020 K8 (Catalina-ATLAS),h,09/15.3353/2020,31.4270,181.4487,260.0146,1.000258,0.470994,2000,15.0,3.2
# From MPEC 2021-BE3
P/2020 K9 (Lemmon-PANSTARRS),e,23.2000,166.3141,197.0824,4.205555,0.1142797,0.32069203,142.8321,07/16.0/2024,2000,g 12.5,4.0
# From MPEC 2023-C45
P/2020 M1 (PANSTARRS),e,8.5335,142.6031,72.5820,5.314750,0.0804414,0.47307255,134.0423,07/16.0/2024,2000,g 14.5,4.0
# From MPEC 2022-H30
C/2020 M3 (ATLAS),e,23.4718,71.1691,328.6110,27.23938,0.0069328,0.95333305,9.4217,07/16.0/2024,2000,g 14.5,4.0
# From MPEC 2023-N01
A/2020 M4,h,11/23.6391/2020,160.1147,348.6222,104.5592,1.000656,5.945429,2000,14.5,2.0
# From MPEC 2024-NE4
P/2020 MK4 (PANSTARRS),e,6.7854,0.6907,93.8248,6.219077,0.0635499,0.01383369,295.6984,07/16.0/2024,2000,g  8.0,4.0
# From MPEC 2023-FK0
C/2020 M5 (ATLAS),h,08/19.8538/2021,93.1966,352.0619,126.2599,1.000254,3.000363,2000,9.0,4.0
# From MPEC 2022-GA9
C/2020 N1 (PANSTARRS),h,03/12.7676/2021,29.7487,279.8781,186.7922,1.000665,1.317010,2000,12.5,4.0
# From MPEC 2021-P47
C/2020 N2 (ATLAS),e,161.0387,257.1783,331.2767,102.6446,0.0009478,0.98257487,0.0000,08/24.2366/2020,2000,g 16.0,3.2
# From MPEC 2024-JU4
C/2020 O2 (Amaral),h,08/27.9145/2021,71.7619,256.7914,10.2425,1.000491,4.860298,2000,8.0,3.2
# From MPEC 2023-C45
P/2020 O3 (PANSTARRS),e,8.4446,266.8188,81.4518,4.646776,0.0983958,0.10259239,124.4835,07/16.0/2024,2000,g 12.0,4.0
# From MPEC 2021-BE3
C/2020 P1 (NEOWISE),h,10/20.8923/2020,45.1676,53.4757,8.9070,1.000389,0.340817,2000,14.0,3.2
# From MPEC 2024-JU4
C/2020 P3 (ATLAS),h,04/22.2640/2021,61.8789,19.4734,82.3142,1.002963,6.813804,2000,6.0,4.0
# From MPEC 2022-PB4
C/2020 PV6 (PANSTARRS),e,128.1890,329.1425,71.3320,41.92644,0.0036305,0.94531827,3.7173,07/16.0/2024,2000,g 10.0,4.0
# From MPEC 2022-L66
C/2020 Q1 (Borisov),e,142.9440,52.3964,9.9946,61.82976,0.0020273,0.97866632,0.0000,08/14.8107/2020,2000,g 14.0,4.0
# From MPEC 2023-CD7
C/2020 Q2 (PANSTARRS),e,3.3353,179.8183,118.2828,10.61802,0.0284865,0.48976690,46.4886,07/16.0/2024,2000,g 12.0,3.2
# From MPEC 2024-F34
C/2020 R2 (PANSTARRS),e,53.2258,195.1044,211.8532,427.4816,0.0001115,0.98901476,0.0000,02/25.2906/2022,2000,g  9.0,4.0
# From MPEC 2022-K19
C/2020 R4 (ATLAS),e,164.4263,323.2550,46.5940,98.83074,0.0010032,0.98964598,0.0000,03/02.3828/2021,2000,g 13.5,4.0
# From MPEC 2023-C45
P/2020 R5 (PANSTARRS),e,11.4404,272.9473,82.7441,4.991105,0.0883912,0.31376923,133.3868,07/16.0/2024,2000,g  9.5,6.0
# From MPEC 2021-Y10
C/2020 R6 (Rankin),e,82.8421,12.1976,272.0012,297.8127,0.0001918,0.98946364,0.0000,09/07.4385/2019,2000,g 11.0,4.0
# From MPEC 2024-NE4
C/2020 R7 (ATLAS),h,09/16.1826/2022,114.9030,268.3024,347.8159,1.000079,2.954627,2000,7.0,3.2
# From MPEC 2021-BE3
P/2020 S1 (PANSTARRS),e,13.7200,129.5089,255.0889,5.998841,0.0670815,0.50741596,85.5587,07/16.0/2024,2000,g 14.0,4.0
# From MPEC 2022-ST7
C/2020 S2 (PANSTARRS),e,22.3958,197.6992,202.3773,10.24167,0.0300710,0.82815995,39.1430,07/16.0/2024,2000,g 17.0,4.0
# From MPEC 2024-JU4
C/2020 S3 (Erasmus),e,20.0274,222.5807,350.0559,144.4228,0.0005679,0.99726573,0.0000,12/11.5195/2020,2000,g 13.5,3.2
# From MPEC 2024-N80
C/2020 S4 (PANSTARRS),h,02/09.3344/2023,20.5678,117.7002,21.0156,1.002144,3.369787,2000,8.5,3.2
# From MPEC 2021-BE3
P/2020 S5 (PANSTARRS),e,12.3430,316.0436,53.2554,4.056744,0.1206251,0.33789854,173.3503,07/16.0/2024,2000,g 14.5,4.0
# From MPEC 2021-BE3
P/2020 S7 (PANSTARRS),e,16.0783,328.0918,40.6268,5.034580,0.0872487,0.41012153,116.5184,07/16.0/2024,2000,g 14.5,4.0
# From MPEC 2021-P47
C/2020 S8 (Lemmon),e,108.5306,24.0522,160.1888,247.8134,0.0002526,0.99048586,0.0000,04/10.6287/2021,2000,g 12.5,4.0
# From MPEC 2022-TD3
C/2020 T2 (Palomar),e,27.8377,83.0565,150.4058,283.1933,0.0002068,0.99273710,0.0000,07/10.6363/2021,2000,g 11.0,3.2
# From MPEC 2021-N06
P/2020 T3 (PANSTARRS),e,7.2991,73.9931,357.0557,3.516509,0.1494640,0.59242884,190.0360,07/16.0/2024,2000,g 18.0,3.2
# From MPEC 2021-N06
C/2020 T4 (PANSTARRS),h,07/05.6632/2021,83.8517,50.6195,79.5847,1.000460,2.189685,2000,13.0,3.2
# From MPEC 2021-BE3
C/2020 T5 (Lemmon),e,66.5441,237.8281,90.3699,659.6741,0.0000582,0.99712754,0.0000,10/08.5672/2020,2000,g 16.0,4.0
# From MPEC 2021-N06
P/2020 U2 (PANSTARRS),e,6.4197,342.8570,84.7028,3.777944,0.1342211,0.51139274,174.1122,07/16.0/2024,2000,g 18.0,4.0
# From MPEC 2021-W31
C/2020 U3 (Rankin),e,30.1432,282.6306,124.4203,67.34116,0.0017835,0.96613100,2.2396,07/16.0/2024,2000,g 15.0,4.0
# From MPEC 2024-NE4
C/2020 U4 (PANSTARRS),h,04/09.7184/2022,167.0128,120.3757,70.1208,1.000779,5.360794,2000,7.0,4.0
# From MPEC 2024-GJ3
C/2020 U5 (PANSTARRS),e,97.2954,107.3156,75.4530,4763,0.0000030,0.99921118,0.0000,04/28.0924/2022,2000,g  8.0,4.0
# From MPEC 2024-NE4
C/2020 V2 (ZTF),h,05/08.4663/2023,131.6125,212.3747,162.4070,1.000827,2.228010,2000,4.9,4.0
# From MPEC 2023-D72
P/2020 V3 (PANSTARRS),e,23.0295,198.2596,249.5981,8.399179,0.0404901,0.25773663,50.5775,07/16.0/2024,2000,g  8.3,4.0
# From MPEC 2024-F34
P/2020 V4 (Rankin),e,14.2426,203.4857,257.1369,9.385903,0.0342760,0.45128050,37.4449,07/16.0/2024,2000,g  9.0,4.0
# From MPEC 2021-BE3
P/2020 W1 (Rankin),e,10.7803,124.3926,265.2780,7.222475,0.0507779,0.26605711,79.0862,07/16.0/2024,2000,g 10.0,4.0
# From MPEC 2021-BE3
C/2020 W5 (Lemmon),h,11/30.5436/2020,88.6157,75.4675,24.5482,1.001631,3.367657,2000,15.0,4.0
# From MPEC 2024-NE4
P/2020 WJ5 (Lemmon),e,22.2892,177.7904,338.0586,6.015269,0.0668069,0.17177962,74.2921,07/16.0/2024,2000,g  8.5,4.0
# From MPEC 2024-F34
P/2020 X1 (ATLAS),e,31.6960,55.9805,323.5036,4.534056,0.1020878,0.36499705,148.6723,07/16.0/2024,2000,g 13.0,4.0
# From MPEC 2024-A43
C/2020 X2 (ATLAS),e,18.1851,105.3775,347.4743,16.50412,0.0146999,0.76803205,19.6574,07/16.0/2024,2000,g 10.6,4.0
# From MPEC 2021-S45
C/2020 X4 (Leonard),e,80.6373,161.9224,140.3167,40.69746,0.0037962,0.87162209,5.0801,07/16.0/2024,2000,g  9.0,4.0
# From MPEC 2024-C04
C/2020 Y2 (ATLAS),e,101.1882,26.5335,266.4142,1652,0.0000147,0.99809633,0.0000,06/18.1723/2022,2000,g  6.5,4.0
# From MPEC 2021-R75
C/2020 Y3 (ATLAS),e,83.1146,191.4051,341.8785,138.8652,0.0006023,0.98565256,0.0000,12/03.2470/2020,2000,g 13.5,4.0
# From MPEC 2023-CD7
C/2021 A1 (Leonard),h,01/03.4478/2022,132.7538,255.9116,225.1458,1.000143,0.616140,2000,8.5,4.0
# From MPEC 2022-F14
C/2021 A2 (NEOWISE),e,107.0228,125.1193,338.7703,228.3407,0.0002856,0.99381076,0.0000,01/22.1376/2021,2000,g 13.5,4.0
# From MPEC 2022-ED3
C/2021 A4 (NEOWISE),e,111.5874,307.0994,204.7284,42.39432,0.0035706,0.97289767,0.0000,03/19.5165/2021,2000,g 16.0,4.0
# From MPEC 2021-BE3
P/2021 A5 (PANSTARRS),e,18.1861,328.8179,61.4201,3.047278,0.1852831,0.13991531,248.3100,07/16.0/2024,2000,g 15.0,4.0
# From MPEC 2023-O39
C/2021 A6 (PANSTARRS),e,75.5809,164.0526,351.6090,9153,0.0000011,0.99913429,0.0000,05/02.8693/2021,2000,g  7.0,4.0
# From MPEC 2022-M88
C/2021 A7 (NEOWISE),e,78.1806,154.4536,355.9845,1821,0.0000127,0.99892123,0.0000,07/15.1288/2021,2000,g 10.0,4.0
# From MPEC 2024-GJ3
C/2021 A9 (PANSTARRS),h,12/02.5741/2023,158.0129,314.8335,211.5147,1.000986,7.760476,2000,6.0,4.0
# From MPEC 2021-N06
C/2021 A10 (NEOWISE),e,151.9639,188.7706,82.5379,89.38431,0.0011663,0.98585832,0.0000,03/14.9307/2021,2000,g 19.0,4.0
# From MPEC 2022-L66
C/2021 B2 (PANSTARRS),e,38.0830,120.4801,335.0342,387.0791,0.0001294,0.99350984,0.0000,05/04.6734/2021,2000,g 14.0,4.0
# From MPEC 2021-N06
C/2021 B3 (NEOWISE),e,119.4738,67.2719,293.5481,34.24987,0.0049172,0.93682301,6.0192,07/16.0/2024,2000,g 13.5,4.0
# From MPEC 2023-KD6
C/2021 C1 (Rankin),e,143.0427,186.8687,336.1307,2801,0.0000066,0.99875987,0.0000,12/06.4315/2020,2000,g 11.5,4.0
# From MPEC 2021-U31
P/2021 C2 (PANSTARRS),e,21.9408,66.4561,78.6961,9.538855,0.0334549,0.48792035,41.4225,07/16.0/2024,2000,g 12.0,4.0
# From MPEC 2024-M41
C/2021 C3 (Catalina),e,122.1791,181.8976,357.0077,60.88606,0.0020746,0.96266381,2.5940,07/16.0/2024,2000,g 14.0,4.0
# From MPEC 2022-M88
C/2021 C4 (ATLAS),e,132.8440,194.2606,320.1031,8251,0.0000013,0.99945501,0.0000,01/16.6776/2021,2000,g  9.0,4.0
# From MPEC 2024-N80
C/2021 C5 (PANSTARRS),e,50.7929,323.6732,270.9129,1768,0.0000133,0.99816623,0.0000,02/10.9907/2023,2000,g  9.0,4.0
# From MPEC 2022-YB4
